BEIDOU-3 G1 (C59)       
1 43683U 18085A   26116.88218741 -.00000118  00000+0  00000+0 0  9990
2 43683   2.9463  98.7324 0007381 333.4211 260.2406  1.00265471 27543
BEIDOU-3 M17 (C36)      
1 43706U 18093A   26116.23519557 -.00000002  00000+0  00000+0 0  9995
2 43706  54.1668 184.0590 0009019 291.5360  74.8287  1.86228400 50578
BEIDOU-3 M18 (C37)      
1 43707U 18093B   26116.08854624 -.00000003  00000+0  00000+0 0  9997
2 43707  54.1674 184.0561 0007023 324.9602  35.0533  1.86226332 50561
BEIDOU-3 IGSO-1 (C38)   
1 44204U 19023A   26110.03709628 -.00000228  00000+0  00000+0 0  9995
2 44204  58.6186  38.2497 0024357 235.9811  64.3555  1.00256582  6624
BEIDOU-2 G8 (C01)       
1 44231U 19027A   26116.87915406 -.00000258  00000+0  00000+0 0  9993
2 44231   1.5300  74.3743 0011013 279.3166 322.1799  1.00268164 25562
BEIDOU-3 IGSO-2 (C39)   
1 44337U 19035A   26116.51763993 -.00000097  00000+0  00000+0 0  9993
2 44337  55.2353 159.3158 0039369 215.1492 145.9118  1.00282508 25150
BEIDOU-3 M24 (C46)      
1 44542U 19061A   26116.15785608 -.00000003  00000+0  00000+0 0  9994
2 44542  54.3941 184.4828 0008030   6.8993 353.1712  1.86228959 44828
BEIDOU-3 M23 (C45)      
1 44543U 19061B   26116.27266917 -.00000002  00000+0  00000+0 0  9994
2 44543  54.3929 184.4471 0005040 348.5066   0.4603  1.86227142 44828
BEIDOU-3 IGSO-3 (C40)   
1 44709U 19073A   26115.86310865 -.00000195  00000+0  00000+0 0  9990
2 44709  54.8923 281.4605 0042116 188.7957 171.0495  1.00252806 23930
BEIDOU-3 M22 (C44)      
1 44793U 19078A   26115.99699650 -.00000055  00000+0  00000+0 0  9999
2 44793  53.9841 301.6629 0007305  45.8856 314.1715  1.86226949 43676
BEIDOU-3 M21 (C43)      
1 44794U 19078B   26116.67401454 -.00000060  00000+0  00000+0 0  9995
2 44794  53.9567 301.6016 0005184  43.3217 316.7148  1.86227493 43694
BEIDOU-3 M19 (C41)      
1 44864U 19090A   26116.52856293 -.00000040  00000+0  00000+0 0  9994
2 44864  56.5164  64.4967 0019771 296.1367 163.2976  1.86231351 43270
BEIDOU-3 M20 (C42)      
1 44865U 19090B   26116.40926545 -.00000038  00000+0  00000+0 0  9997
2 44865  56.5180  64.5353 0017474 308.3640 160.6881  1.86231167 43256
BEIDOU-3 G2 (C60)       
1 45344U 20017A   26116.95983383 -.00000149  00000+0  00000+0 0  9997
2 45344   2.7633  46.5357 0002544 348.1977 245.8021  1.00271430 22742
BEIDOU-3 G3 (C61)       
1 45807U 20040A   26116.94372098 -.00000363  00000+0  00000+0 0  9999
2 45807   2.3235  67.2985 0003756 329.8075 268.1123  1.00270304 21556
BEIDOU-3 G4 (C62)       
1 56564U 23066A   26116.94952769 -.00000293  00000+0  00000+0 0  9993
2 56564   0.5570 320.0464 0002817 160.5187 216.2962  1.00272365 10881
BEIDOU-3 M28 (C50)      
1 58654U 23207A   26116.75122104 -.00000044  00000+0  00000+0 0  9997
2 58654  55.7097  64.0374 0004600 323.2817  36.6572  1.86229709 15888
